[{"OBJECT_NAME":"HAIYANG-2A","OBJECT_ID":"2011-043A","EPOCH":"2026-03-10T00:07:18.637248","MEAN_MOTION":13.78270863,"ECCENTRICITY":0.00014304,"INCLINATION":99.3421,"RA_OF_ASC_NODE":73.6029,"ARG_OF_PERICENTER":273.3888,"MEAN_ANOMALY":86.7099,"EPHEMERIS_TYPE":0,"CLASSIFICATION_TYPE":"U","NORAD_CAT_ID":37781,"ELEMENT_SET_NO":999,"REV_AT_EPOCH":73301,"BSTAR":-0.00021809434,"MEAN_MOTION_DOT":-2.64e-6,"MEAN_MOTION_DDOT":0},{"OBJECT_NAME":"DELTA 1 R\/B(1)","OBJECT_ID":"1984-115B","EPOCH":"2026-03-09T11:22:00.411168","MEAN_MOTION":12.46091087,"ECCENTRICITY":0.10319046,"INCLINATION":21.491,"RA_OF_ASC_NODE":143.1796,"ARG_OF_PERICENTER":162.4286,"MEAN_ANOMALY":201.4703,"EPHEMERIS_TYPE":0,"CLASSIFICATION_TYPE":"U","NORAD_CAT_ID":15392,"ELEMENT_SET_NO":999,"REV_AT_EPOCH":86398,"BSTAR":8.9488386e-5,"MEAN_MOTION_DOT":2.6e-6,"MEAN_MOTION_DDOT":0}]
